[{"OBJECT_NAME":"STARLINK-1647","OBJECT_ID":"2021-024B","EPOCH":"2026-03-09T22:35:10.254624","MEAN_MOTION":15.30190382,"ECCENTRICITY":0.00013757,"INCLINATION":53.16,"RA_OF_ASC_NODE":331.2366,"ARG_OF_PERICENTER":119.5555,"MEAN_ANOMALY":240.5583,"EPHEMERIS_TYPE":0,"CLASSIFICATION_TYPE":"U","NORAD_CAT_ID":47978,"ELEMENT_SET_NO":999,"REV_AT_EPOCH":27466,"BSTAR":-1.2924482e-5,"MEAN_MOTION_DOT":-7.42e-6,"MEAN_MOTION_DDOT":0},{"OBJECT_NAME":"PROTOMETHEE","OBJECT_ID":"2023-174BT","EPOCH":"2026-03-09T23:28:08.029344","MEAN_MOTION":15.30202663,"ECCENTRICITY":0.00088339,"INCLINATION":97.3826,"RA_OF_ASC_NODE":147.9552,"ARG_OF_PERICENTER":148.5993,"MEAN_ANOMALY":211.5776,"EPHEMERIS_TYPE":0,"CLASSIFICATION_TYPE":"U","NORAD_CAT_ID":58321,"ELEMENT_SET_NO":999,"REV_AT_EPOCH":12979,"BSTAR":0.00015715731,"MEAN_MOTION_DOT":4.52e-5,"MEAN_MOTION_DDOT":0}]
